SL-3 R/B                
1 19046U 88032B   23284.58153196  .00008430  00000+0  55770-3 0  9999
2 19046  97.4258 269.1601 0035159  37.7035 322.6647 15.07083877918981
SL-16 R/B               
1 19120U 88039B   23284.61142678  .00000255  00000+0  14377-3 0  9991
2 19120  71.0125 129.0930 0024065 251.9135 107.9368 14.19345134833494
COSMOS 1953             
1 19210U 88050A   23284.55265043  .00008362  00000+0  49230-3 0  9992
2 19210  82.5151 311.5472 0014291 316.8208  43.1901 15.11408004904112
SL-8 R/B                
1 19257U 88053B   23284.48527795  .00000737  00000+0  25215-3 0  9998
2 19257  74.0460 293.6662 0021100 329.6651 139.9691 14.37939338850031
COSMOS 1975             
1 19573U 88093A   23284.44758702  .00010139  00000+0  61241-3 0  9999
2 19573  82.5218 268.5667 0016185  10.1211 350.0341 15.10467697885777
SL-14 R/B               
1 19574U 88093B   23284.60290406  .00000989  00000+0  11532-3 0  9990
2 19574  82.5313 147.1610 0022816  68.6590 351.7252 14.84045905870430
SL-16 R/B               
1 19650U 88102B   23284.51308649  .00000149  00000+0  10001-3 0  9993
2 19650  71.0005 203.1319 0016648 271.0559  88.8656 14.15918558802298
INTERCOSMOS 24          
1 20261U 89080A   23284.59897126  .00001427  00000+0  41963-3 0  9991
2 20261  82.6035 316.0397 1198248 171.6669 190.6472 12.57286970556096
SL-14 R/B               
1 20262U 89080C   23284.60129008  .00000459  00000+0  13187-3 0  9992
2 20262  82.5993  17.9556 1235227  35.0304 332.6032 12.49481663550193
DELTA 2 R/B(1)          
1 20303U 89085B   23284.20509627  .01403359  12955-2  13659-2 0  9993
2 20303  35.6214 193.0429 0018351 295.5443 195.1410 16.10371643854649
DELTA 1 R/B             
1 20323U 89089B   23284.48038028  .00001522  00000+0  39726-3 0  9995
2 20323  97.0835 253.4442 0071584  20.2321 340.1687 14.49049723768185
ARIANE 40 R/B           
1 20443U 90005H   23284.43673557  .00000762  00000+0  26279-3 0  9999
2 20443  98.4280 349.9374 0009675 333.3128  26.7561 14.38640540766185
DELTA 2 R/B(1)          
1 20453U 90008B   23284.34122653  .00021174  00000+0  93094-3 0  9998
2 20453  35.6196 269.7741 0228331  38.9865 322.7076 15.00679525791879
COSMOS 2058             
1 20465U 90010A   23284.27997529  .00006664  00000+0  51470-3 0  9997
2 20465  82.4910 186.5079 0016279  75.2935 285.0093 15.01293119809708
SL-14 R/B               
1 20466U 90010B   23284.49668754  .00001085  00000+0  13332-3 0  9994
2 20466  82.5068  13.0931 0019369 321.5356  38.4476 14.82059990798046
SL-14 R/B               
1 20511U 90018B   23284.58076118  .00000886  00000+0  11196-3 0  9994
2 20511  82.5225 324.8225 0018729 103.6615   8.7124 14.80687001792274
HST                     
1 20580U 90037B   23284.51390337  .00008634  00000+0  44789-3 0  9999
2 20580  28.4685 213.4016 0002485 199.2473 327.6577 15.14392836639109
SL-16 R/B               
1 20625U 90046B   23284.58727521  .00000035  00000+0  43055-4 0  9998
2 20625  71.0004 345.9375 0015342 209.9405 150.0842 14.14773610723904
COSMOS 2084             
1 20663U 90055A   23284.60059956  .00006646  00000+0  50990-3 0  9992
2 20663  62.7909  77.1174 0129910  96.9743 264.6149 14.96219437804199
SL-6 R/B(2)             
1 20666U 90055D   23284.53938363  .00004676  00000+0  37747-3 0  9991
2 20666  62.7863 350.9916 0115464 118.6076 242.6694 14.96158484806150
SL-8 R/B                
1 20775U 90078B   23284.55344459  .00023819  00000+0  10181-2 0  9998
2 20775  82.9159 299.3704 0504078  12.2741 349.0210 14.51814865680008
SL-8 R/B                
1 21088U 91006B   23284.57165465  .00000267  00000+0  25331-3 0  9994
2 21088  82.9378 104.7033 0022164 343.5073  75.2978 13.77278657642919
OKEAN-3                 
1 21397U 91039A   23284.54828896  .00004793  00000+0  42188-3 0  9991
2 21397  82.5167 103.9139 0018241  72.1240 288.1969 14.96173717733047
COSMOS 2151             
1 21422U 91042A   23284.53728179  .00004320  00000+0  39775-3 0  9990
2 21422  82.5022 208.7875 0014856 137.4988 222.7386 14.94436869731480
SL-14 R/B               
1 21423U 91042B   23284.57715795  .00000883  00000+0  11241-3 0  9993
2 21423  82.4935 324.6539 0015979 248.8248 111.1258 14.80419552722799
ERS-1                   
1 21574U 91050A   23284.55365261  .00000757  00000+0  26280-3 0  9995
2 21574  98.7559 265.9849 0031640 292.6124  67.1717 14.38253673689168
ARIANE 40 R/B           
1 21610U 91050F   23284.16315169  .00000902  00000+0  29096-3 0  9995
2 21610  98.3257 347.8937 0002701 197.1030 163.0069 14.41520986692077
INTERCOSMOS 25          
1 21819U 91086A   23284.56842666  .00004286  00000+0  86013-3 0  9997
2 21819  82.6014 120.3328 1505687 207.9753 143.1824 12.07596180390259
SL-8 R/B                
1 21876U 92008B   23284.52005722  .00000144  00000+0  13183-3 0  9992
2 21876  82.9305 202.2144 0036200  73.1058 100.3935 13.75775562588384
SL-8 R/B                
1 21938U 92020B   23284.56658316  .00000257  00000+0  25136-3 0  9998
2 21938  82.9266  87.3747 0028143 232.7198 192.7645 13.75370794580142
COSMOS 2219             
1 22219U 92076A   23284.59412532 -.00000041  00000+0  30159-5 0  9998
2 22219  71.0614  57.4658 0015514 106.3899 253.8930 14.13791725593977
SL-16 R/B               
1 22220U 92076B   23284.32090109  .00000140  00000+0  94114-4 0  9992
2 22220  70.9987 242.4732 0013200 346.8294 119.6681 14.16588649597146
COSMOS 2221             
1 22236U 92080A   23284.61093075  .00004498  00000+0  45972-3 0  9998
2 22236  82.5093  38.0724 0014609 257.2889 102.6697 14.90309892649442
SL-16 R/B               
1 22285U 92093B   23284.61128714  .00000424  00000+0  24243-3 0  9998
2 22285  71.0223  51.4323 0005763 227.9168 132.1465 14.15188097588636
COSMOS 2228             
1 22286U 92094A   23284.55627047  .00004067  00000+0  41040-3 0  9997
2 22286  82.5232 355.7679 0020561  17.5166 342.6758 14.90710335644648
SL-16 R/B               
1 22566U 93016B   23284.35835677 -.00000217  00000+0 -87464-4 0  9997
2 22566  71.0038 263.8043 0012071 231.1363 128.8684 14.15071073577621
COSMOS 2242             
1 22626U 93024A   23284.54110341  .00004057  00000+0  41246-3 0  9999
2 22626  82.5247  24.4597 0018621  19.0683 341.1229 14.90443589649013
SL-16 R/B               
1 22803U 93059B   23284.60486800 -.00000012  00000+0  17844-4 0  9993
2 22803  70.9899  66.6780 0015054 114.3556 245.9141 14.16959201554853
ARIANE 40 R/B           
1 22830U 93061H   23284.41461262  .00000577  00000+0  23190-3 0  9995
2 22830  98.6052 349.6232 0010928  10.4270 349.7138 14.31871933568082
COSMOS 2278             
1 23087U 94023A   23284.54439493  .00000166  00000+0  11228-3 0  9997
2 23087  71.0549 215.9993 0011352 289.1014  70.8879 14.14005336520376
SL-16 R/B               
1 23088U 94023B   23284.60856087 -.00000178  00000+0 -67317-4 0  9993
2 23088  70.9970 118.8360 0004520 225.4850 134.5904 14.14788571521605
SL-16 R/B               
1 23343U 94074B   23284.57439094  .00001159  00000+0  16894-3 0  9995
2 23343  97.8269 330.3147 0006419 188.8043 297.8413 14.77635145557195
SL-16 R/B               
1 23405U 94077B   23284.57823758  .00000334  00000+0  19620-3 0  9995
2 23405  70.9848  43.7500 0001323   2.9840 357.1290 14.15335868491693
ERS-2                   
1 23560U 95021A   23284.50112803  .00114073  00000+0  16982-2 0  9995
2 23560  98.5290 269.1389 0003164  96.0309 264.1302 15.54719520527135
ARIANE 40+ R/B          
1 23561U 95021B   23284.44368684  .00000750  00000+0  25964-3 0  9996
2 23561  98.5622 347.0248 0005860 250.3806 128.3857 14.38557340492630
SL-16 R/B               
1 23705U 95058B   23284.54228457  .00000137  00000+0  94720-4 0  9996
2 23705  71.0212 227.7726 0011861  10.6258 349.5113 14.15251477443312
SL-16 R/B               
1 24298U 96051B   23284.31146553 -.00000028  00000+0  11315-4 0  9998
2 24298  70.8233 236.2575 0015638 346.1526  13.9163 14.12515543397339
ORBVIEW 2 (SEASTAR)     
1 24883U 97037A   23284.62608429  .00000939  00000+0  35125-3 0  9996
2 24883  98.7415  56.2713 0003176 121.2362 238.9134 14.34194523382266
SL-16 R/B               
1 25400U 98043G   23284.55831616  .00000250  00000+0  12421-3 0  9998
2 25400  98.7145 221.6033 0010801  53.5667 306.6507 14.25649780313567
SL-16 R/B               
1 25407U 98045B   23284.27229687  .00000131  00000+0  90867-4 0  9994
2 25407  71.0102 232.7151 0009726 283.5174  76.4866 14.15937661302461
ISS (ZARYA)             
1 25544U 98067A   23284.71514314  .00021887  00000+0  38924-3 0  9999
2 25544  51.6416 111.3469 0005034  97.9016   2.4289 15.50078525419865
CZ-4B R/B               
1 25732U 99025C   23284.61423168  .00000250  00000+0  14287-3 0  9995
2 25732  98.7913 327.8043 0037102 352.7404 121.1647 14.17866947263436
OKEAN-O                 
1 25860U 99039A   23284.55954003  .00001806  00000+0  25891-3 0  9993
2 25860  98.0759 331.9434 0000961  70.6758 289.4556 14.77779736304281
SL-16 R/B               
1 25861U 99039B   23284.58890027  .00001390  00000+0  19266-3 0  9999
2 25861  98.1271 323.2897 0014448 220.6087 139.4047 14.79552049306623
DELTA 2 R/B             
1 25876U 99041E   23284.45372639  .00002628  00000+0  47574-3 0  9996
2 25876  51.7661 204.4614 0521655 279.9125  74.3326 14.06996923238889
HELIOS 1B               
1 25977U 99064A   23284.56128097  .00001637  00000+0  20525-3 0  9998
2 25977  98.2769 142.4702 0002350  62.2641 297.8810 14.83649061554599
TERRA                   
1 25994U 99068A   23284.63924760  .00001174  00000+0  25757-3 0  9998
2 25994  98.0832 350.0842 0003048  76.1315  79.8592 14.59365592266644
SL-16 R/B               
1 26070U 00006B   23284.62553788 -.00000165  00000+0 -60017-4 0  9995
2 26070  71.0009 147.9704 0014270  79.5258 280.7472 14.15573346224003
TITAN 4B R/B            
1 26474U 00047B   23284.56230647  .00005438  00000+0  43508-3 0  9998
2 26474  67.9952 336.8109 0055772 301.5959  57.9748 14.99720117260505
